YAOGAN-43 01D           
1 60461U 24148D   26068.43560480  .00010676  00000+0  37766-3 0  9999
2 60461  35.0010  61.7102 0002556 326.2473  33.8080 15.28369377 87008
STARLINK-32468          
1 62149U 24224L   26068.25273075  .00039213  00000+0  14269-2 0  9990
2 62149  43.0007 160.5338 0000853 242.2543 117.8222 15.27581167 72254
